C/2019 A9 (PANSTARRS),e,84.1696,278.3835,237.9451,39.44139,0.0039790,0.96372132,3.0229,08/24.0/2021,2000,g 15.0,4.0
# From MPC114606
C/2019 B1 (Africano),e,123.3651,290.4328,174.8265,142.5446,0.0005791,0.98879933,0.0000,03/19.5466/2019,2000,g 16.0,4.0
# From MPC115885
P/2019 B2 (Groeller),e,16.9128,175.9817,0.1142,3.878090,0.1290557,0.37168171,104.0435,08/24.0/2021,2000,g 14.5,4.0
# From MPEC 2021-P47
C/2019 B3 (PANSTARRS),h,01/20.2466/2021,66.5359,358.4344,263.9278,1.001965,6.823154,2000,5.5,4.0
# From MPEC 2021-P47
C/2019 C1 (ATLAS),e,36.0327,212.3860,319.1716,708.1362,0.0000523,0.99070685,0.0000,05/05.3276/2020,2000,g 10.0,4.0
# From MPC118842
C/2019 D1 (Flewelling),e,34.0641,231.7075,70.5585,142.6480,0.0005785,0.98892375,0.0000,05/11.8525/2019,2000,g 13.0,4.0
# From MPEC 2021-P47
C/2019 E3 (ATLAS),h,11/13.2665/2023,84.2966,347.2512,280.6314,1.002981,10.314200,2000,2.5,4.0
# From MPEC 2021-P47
C/2019 F1 (ATLAS-Africano),h,06/22.8883/2021,54.1745,38.7233,251.1372,1.003743,3.595720,2000,5.5,4.0
# From MPEC 2021-P47
C/2019 F2 (ATLAS),e,19.2188,175.5977,11.4798,16.70288,0.0144383,0.86574145,10.3248,08/24.0/2021,2000,g 12.0,4.0
# From MPEC 2021-P47
A/2019 G2,e,159.2052,208.1508,82.6201,607.8608,0.0000658,0.99623149,0.0000,12/09.8856/2019,2000,g 16.5,2.0
# From MPEC 2021-N06
A/2019 G4,h,09/16.1270/2018,138.3853,130.4642,287.8722,1.001940,5.857068,2000,13.0,2.0
# From MPC114607
P/2019 GG21 (PANSTARRS),e,6.0841,340.5716,208.5906,7.474909,0.0482275,0.47267913,40.3167,08/24.0/2021,2000,g 12.0,4.0
# From MPC115885
C/2019 H1 (NEOWISE),e,104.5550,269.2090,19.3400,239.4494,0.0002660,0.99228940,0.0000,04/27.8664/2019,2000,g 15.5,4.0
# From MPC118842
C/2019 J1 (Lemmon),e,24.5500,98.0987,167.7940,69.40140,0.0017047,0.96425311,1.4797,08/24.0/2021,2000,g 12.0,4.0
# From MPC115885
C/2019 J2 (Palomar),e,105.1707,25.4960,98.7195,684.4939,0.0000550,0.99747672,0.0000,07/19.7314/2019,2000,g 13.0,4.0
# From MPC117071
C/2019 J3 (ATLAS),h,08/02.0510/2019,131.4052,270.5386,16.6071,1.000488,2.374612,2000,13.5,4.0
# From MPC117071
C/2019 JU6 (ATLAS),e,148.3153,21.7561,94.9370,349.9462,0.0001506,0.99415174,0.0000,05/31.9763/2019,2000,g 14.5,4.0
# From MPEC 2021-P47
C/2019 K1 (ATLAS),h,02/13.0026/2020,87.1265,73.3750,265.7139,1.000053,2.012586,2000,10.0,4.0
# From MPC119997
C/2019 K4 (Ye),e,105.2989,180.1531,139.7790,1364,0.0000196,0.99834275,0.0000,06/16.1710/2019,2000,g 12.5,4.0
# From MPEC 2021-P47
C/2019 K5 (Young),e,15.3168,177.1439,175.0098,160.6883,0.0004839,0.98732880,0.0000,06/22.9645/2019,2000,g 13.0,4.0
# From MPEC 2021-P47
C/2019 K6 (PANSTARRS),e,132.3819,42.9543,187.6390,1893,0.0000120,0.99792451,0.0000,05/20.2847/2020,2000,g 11.5,4.0
# From MPEC 2021-P47
C/2019 K7 (Smith),h,06/17.1176/2020,103.5422,307.9298,27.3320,1.000004,4.475894,2000,6.0,4.0
# From MPEC 2021-P47
C/2019 K8 (ATLAS),e,93.2129,291.0453,85.3731,2829,0.0000066,0.99887066,0.0000,07/21.4901/2019,2000,g 11.5,4.0
# From MPC118095
C/2019 L1 (PANSTARRS),e,9.9907,254.4188,49.9835,9.839798,0.0319319,0.70601913,23.7449,08/24.0/2021,2000,g 13.5,4.0
# From MPC115886
C/2019 L2 (NEOWISE),e,152.1926,12.5669,18.7630,24.86606,0.0079487,0.93477537,6.9575,08/24.0/2021,2000,g 16.0,4.0
# From MPEC 2021-P47
C/2019 L3 (ATLAS),h,01/09.6473/2022,48.3645,290.7887,171.6168,1.001321,3.554449,2000,4.5,4.0
# From MPC118095
C/2019 LB7 (Kleyna),e,164.2912,3.9012,336.4760,34.59162,0.0048445,0.92819805,4.2695,08/24.0/2021,2000,g 17.0,4.0
# From MPC118843
P/2019 M2 (ATLAS),e,12.2814,307.5991,332.5792,3.027243,0.1871256,0.64814260,148.4662,08/24.0/2021,2000,g 21.2,4.0
# From MPC118095
C/2019 M3 (ATLAS),h,01/02.2590/2019,99.4768,154.9055,87.8995,1.000586,2.418859,2000,12.2,4.0
# From MPEC 2021-O56
C/2019 N1 (ATLAS),e,82.4281,13.5754,193.4442,9639,0.0000010,0.99982315,0.0000,12/01.7909/2020,2000,g  7.5,4.0
# From MPEC 2021-N06
C/2019 NJ3 (Lemmon),h,10/22.4631/2020,99.4387,142.4540,246.8661,1.001211,4.361946,2000,9.0,4.0
# From MPEC 2021-P47
A/2019 O2,e,93.2900,48.2997,129.6670,57.35097,0.0022693,0.83116884,358.6568,08/24.0/2021,2000,g  9.5,2.0
# From MPEC 2021-P47
C/2019 O3 (Palomar),h,03/08.4255/2021,89.8164,300.3835,60.0731,1.002878,8.819558,2000,3.5,4.0
# From MPEC 2021-P47
A/2019 O4,e,115.0911,354.9114,61.8514,32.95160,0.0052106,0.88936742,2.9222,08/24.0/2021,2000,g 15.5,2.0
# From MPEC 2021-N06
C/2019 Q1 (Lemmon),h,07/20.2424/2020,155.7258,42.4651,56.1185,1.000711,4.998532,2000,8.5,4.0
# From MPC117072
A/2019 Q2,e,159.0245,188.0254,176.3009,57.14968,0.0022813,0.97798883,0.0000,07/22.1650/2019,2000,g 18.0,2.0
# From MPC117072
C/2019 Q3 (PANSTARRS),h,08/21.4997/2018,65.5253,151.3226,152.7182,1.003652,7.256396,2000,8.5,4.0
# From MPC117072
P/2019 S2 (PANSTARRS),e,10.4720,93.1345,216.9642,4.737970,0.0955687,0.20666821,87.3380,08/24.0/2021,2000,g 13.5,4.0
# From MPC118096
P/2019 S3 (PANSTARRS),e,8.6946,150.1598,212.9905,3.414966,0.1561796,0.47107445,113.7978,08/24.0/2021,2000,g 18.3,4.0
# From MPEC 2021-N06
C/2019 S4 (Lemmon),e,92.0306,63.1607,71.3662,231.9927,0.0002789,0.98516233,0.0000,04/07.9266/2020,2000,g 11.0,4.0
# From MPEC 2021-P47
A/2019 T1,e,120.8710,6.9502,91.0481,38.30659,0.0041571,0.88822417,0.9213,08/24.0/2021,2000,g 13.0,2.0
# From MPEC 2021-P47
C/2019 T2 (Lemmon),e,111.4889,155.6427,239.3918,1894,0.0000120,0.99860277,0.0000,04/22.2875/2021,2000,g  9.0,4.0
# From MPEC 2021-P47
C/2019 T3 (ATLAS),e,121.8620,139.5212,112.2988,3067,0.0000058,0.99806089,0.0000,03/02.9265/2021,2000,g  6.8,4.0
# From MPEC 2021-P47
C/2019 T4 (ATLAS),e,53.6226,199.9442,351.2144,1023,0.0000301,0.99585153,0.0000,06/09.2326/2022,2000,g  5.0,4.0
# From MPEC 2021-P47
P/2019 T5 (ATLAS),e,33.4365,247.6699,189.5728,7.997686,0.0435770,0.80907767,32.8511,08/24.0/2021,2000,g 15.0,4.0
# From MPEC 2021-P47
P/2019 T6 (PANSTARRS),e,18.6946,71.2865,328.9112,5.434611,0.0777950,0.62264798,50.9658,08/24.0/2021,2000,g 15.5,4.0
# From MPC118096
P/2019 U4 (PANSTARRS),e,11.6942,200.0099,180.9762,3.520471,0.1492117,0.47565173,105.2611,08/24.0/2021,2000,g 19.0,4.0
# From MPEC 2021-P47
C/2019 U5 (PANSTARRS),h,03/30.1459/2023,113.5186,2.6436,181.5552,1.000782,3.622830,2000,4.5,4.0
# From MPEC 2021-P47
C/2019 U6 (Lemmon),e,60.9993,235.6982,329.6550,396.4151,0.0001249,0.99769355,0.0000,06/18.7673/2020,2000,g 10.0,4.0
# From MPC119998
C/2019 V1 (Borisov),e,61.8646,83.1957,51.1844,1637,0.0000149,0.99810833,0.0000,07/16.4712/2020,2000,g 11.0,4.0
# From MPEC 2021-P47
P/2019 V2 (Groeller),e,11.8054,189.1795,335.9676,7.510799,0.0478823,0.33157956,14.7784,08/24.0/2021,2000,g 10.0,4.0
# From MPC119998
P/2019 W1 (PANSTARRS),e,23.4641,35.3905,18.6870,4.549914,0.1015545,0.26644658,85.2278,08/24.0/2021,2000,g 12.9,4.0
# From MPEC 2021-P47
P/2019 X1 (Pruyne),e,10.2458,43.6875,36.8044,6.173010,0.0642626,0.30291077,49.1417,08/24.0/2021,2000,g 10.4,4.0
# From MPC119999
C/2019 Y1 (ATLAS),e,73.2817,31.5242,57.9622,85.65170,0.0012434,0.99029429,0.0000,03/15.5894/2020,2000,g 13.7,4.0
# From MPEC 2020-L06
C/2019 Y4 (ATLAS),h,05/31.0486/2020,45.8168,120.9340,177.2676,1.001380,0.251378,2000,11.6,6.0
# From MPEC 2020-L06
C/2019 Y4-A (ATLAS),h,05/31.0486/2020,45.8168,120.9340,177.2676,1.001380,0.251378,2000,11.6,6.0
# From MPEC 2020-L06
C/2019 Y4-B (ATLAS),e,45.4513,120.6299,177.4007,1283,0.0000214,0.99980292,0.0000,05/31.0272/2020,2000,g 12.8,6.0
# From MPEC 2020-L06
C/2019 Y4-C (ATLAS),h,05/31.0064/2020,45.5990,120.6599,177.3010,1.002099,0.252431,2000,12.7,6.0
# From MPEC 2020-L06
C/2019 Y4-D (ATLAS),e,45.6406,121.0401,177.4393,67.89943,0.0017616,0.99629129,0.0000,05/31.1246/2020,2000,g 12.5,6.0
# From MPEC 2021-P47
C/2019 Y5 (PANSTARRS),e,82.8086,51.7774,303.5101,822.0444,0.0000418,0.99402117,0.0000,08/18.2378/2019,2000,g 11.0,4.0
# From MPEC 2020-L06
C/2020 A2 (Iwamoto),e,120.7347,286.3732,68.1941,1355,0.0000198,0.99927901,0.0000,01/08.4210/2020,2000,g 13.5,4.0
# From MPEC 2020-L06
C/2020 A3 (ATLAS),h,07/29.8339/2019,146.7746,120.3801,271.1723,1.025773,5.839080,2000,8.0,4.0
# From MPEC 2020-L06
C/2020 B3 (Rankin),e,20.7082,185.8359,325.0409,1218,0.0000232,0.99725571,0.0000,10/19.6152/2019,2000,g 13.0,4.0
# From MPEC 2021-P47
C/2020 F2 (ATLAS),h,07/16.3347/2022,163.5799,250.2582,48.3722,1.003926,8.816843,2000,4.5,4.0
# From MPEC 2021-O56
C/2020 F3 (NEOWISE),e,128.9483,61.0152,37.2815,339.8722,0.0001573,0.99913272,0.0000,07/03.6425/2020,2000,g  7.5,5.2
# From MPEC 2021-P47
C/2020 F5 (MASTER),h,03/24.4608/2021,51.7340,350.6050,311.1115,1.004849,4.326111,2000,6.5,3.2
# From MPEC 2020-L06
C/2020 F6 (PANSTARRS),e,174.5825,207.8912,344.6193,404.2544,0.0001213,0.99131485,0.0000,04/11.7163/2020,2000,g 14.5,2.8
# From MPEC 2021-P47
C/2020 F7 (Lemmon),e,93.9538,321.8871,227.9735,715.8136,0.0000515,0.99255099,0.0000,11/14.0377/2021,2000,g  7.0,4.0
# From MPEC 2020-KB7
C/2020 F8 (SWAN),e,110.7687,259.9905,68.2002,271.5158,0.0002203,0.99841616,0.0000,05/27.5840/2020,2000,g 10.0,4.0
# From MPEC 2020-L06
P/2020 G1 (Pimentel),e,18.4794,240.0945,207.6508,3.610014,0.1436947,0.85989659,75.3891,08/24.0/2021,2000,g 17.0,4.0
# From MPEC 2020-L06
C/2020 H2 (Pruyne),e,125.0290,277.6435,26.7073,190.8577,0.0003738,0.99563224,0.0000,04/27.6376/2020,2000,g 18.0,4.0
# From MPEC 2020-HM1
C/2020 H3 (Wierzchos),p,06/05.7162/2020,62.5292,30.4456,2.300288,270.6227,2000,13.5,4.0
# From MPEC 2020-L06
C/2020 H4 (Leonard),e,84.5140,307.7351,117.5941,48.09890,0.0029546,0.98073204,0.0000,08/29.5303/2020,2000,g 15.0,3.2
# From MPEC 2021-O56
C/2020 H5 (Robinson),e,70.2262,210.6330,326.4067,3487,0.0000048,0.99731972,0.0000,12/12.0571/2020,2000,g  5.0,4.0
# From MPEC 2021-P47
C/2020 H6 (ATLAS),h,10/01.0741/2021,79.9658,213.7060,20.3479,1.000758,4.702890,2000,8.0,3.2
# From MPEC 2020-KB7
C/2020 H7 (Lemmon),e,135.9235,323.5194,82.6780,1405,0.0000187,0.99685380,0.0000,06/02.9510/2020,2000,g 11.0,4.0
# From MPEC 2021-N06
C/2020 H8 (PANSTARRS),e,99.6474,68.4084,128.9381,595.7480,0.0000678,0.99215201,0.0000,06/04.4551/2020,2000,g 10.5,4.0
# From MPEC 2020-L06
A/2020 H9,e,137.8800,213.1343,312.9099,556.6210,0.0000751,0.99536582,0.0000,12/21.4230/2019,2000,g 18.0,2.0
# From MPEC 2021-P47
